KUIPER-00133            
1 65764U 25217C   25296.16671295  .00003897  00000+0  14324-3 0  9999
2 65764  51.8674 309.3470 0007717 210.6657   7.7384 15.30272656  4893
KUIPER-00139            
1 65765U 25217D   25296.10878204  .00021062  00000+0  60959-3 0  9992
2 65765  51.8673 309.4012 0006425 200.2846 159.7885 15.35533680  4252
KUIPER-00142            
1 65766U 25217E   25296.15299346  .00020149  00000+0  56305-3 0  9997
2 65766  51.8702 308.9580 0003036 150.0993 210.0167 15.36674877  4260
KUIPER-00145            
1 65767U 25217F   25296.15618623  .00032391  00000+0  90339-3 0  9998
2 65767  51.8717 308.9790 0003443 167.8776 192.2294 15.36460358  4266
KUIPER-00147            
1 65768U 25217G   25296.10716006  .00020001  00000+0  57780-3 0  9996
2 65768  51.8661 309.3884 0006510 194.0789 166.0016 15.35625678  4255
KUIPER-00148            
1 65769U 25217H   25296.18522764  .00031235  00000+0  91746-3 0  9992
2 65769  51.8607 309.1485 0009436 209.4687 150.5767 15.34820294  4261
KUIPER-00150            
1 65770U 25217J   25296.11784220  .00030733  00000+0  89869-3 0  9999
2 65770  51.8594 309.4450 0008579 208.0624 151.9900 15.34976687  4257
KUIPER-00151            
1 65771U 25217K   25296.15984326  .00046345  00000+0  12905-2 0  9995
2 65771  51.8699 309.0011 0004817 173.3466 186.7585 15.36335357  4263
